PERSEUS-M1              
1 40039U 14033AF  26137.39365536  .00001464  00000+0  13740-3 0  9998
2 40039  97.9634  81.0260 0012760  45.6950 314.5314 14.95520624646036
POLYITAN-1              
1 40042U 14033AJ  26137.49795897  .00011026  00000+0  35810-3 0  9997
2 40042  98.0957 160.8821 0005589 245.7989 114.2667 15.32122709648891
TIGRISAT                
1 40043U 14033AK  26137.39172277  .00001358  00000+0  16206-3 0  9993
2 40043  97.7796 288.1192 0049653 174.1011 186.0799 14.85019018641054
AEROCUBE 6A             
1 40045U 14033AM  26137.42886270  .00004106  00000+0  34937-3 0  9999
2 40045  97.7220 304.7184 0040218 117.3973 243.1350 14.97745395642010
AEROCUBE 6B             
1 40046U 14033AN  26137.46088400  .00004418  00000+0  36244-3 0  9992
2 40046  97.7172 304.4769 0038388 110.6818 249.8527 14.99164765642154
CANX-4                  
1 40055U 14034C   26137.48329174  .00000553  00000+0  78320-4 0  9999
2 40055  98.3161  11.6643 0014054 107.9109 252.3636 14.81202640639986
CANX-5                  
1 40056U 14034D   26137.48207938  .00000556  00000+0  78638-4 0  9998
2 40056  98.3163  11.7047 0014055 108.0971 252.1773 14.81219706630799
UKUBE-1                 
1 40074U 14037F   26137.48740529  .00005702  00000+0  32720-3 0  9998
2 40074  98.4238 137.5486 0000334 127.1682 232.9577 15.13016754643913
BRITE-PL2 (HEWELIUSZ)   
1 40119U 14049B   26137.30746223  .00001162  00000+0  11306-3 0  9992
2 40119  97.9063 249.0782 0013498 206.9837 153.0682 14.94465822636839
AEROCUBE 5C             
1 40965U 15058B   26137.32463910  .00002099  00000+0  19429-3 0  9997
2 40965  64.7684 358.5897 0129893  75.4018 286.1457 14.91266268361056
AEROCUBE 7              
1 40966U 15058C   26137.54222007  .00003030  00000+0  25075-3 0  9992
2 40966  64.7627 340.7852 0119669  73.9902 287.4354 14.95472274361378
FOX-1A (AO-85)          
1 40967U 15058D   26136.95964132  .00002238  00000+0  20908-3 0  9998
2 40967  64.7768  16.0156 0129128  68.8392 292.6462 14.90773374108919
SINOD-D 1               
1 40968U 15058E   26137.32323242  .00003096  00000+0  25586-3 0  9992
2 40968  64.7761 355.5486 0117659  65.4694 295.8632 14.95649294112045
SNAP-3 ALICE            
1 40970U 15058G   26137.46486301  .00050269  00000+0  75665-3 0  9993
2 40970  64.7525 209.5770 0033215  27.8671 332.4242 15.53882991112102
LMRST-SAT               
1 40971U 15058H   26137.37676384  .00002214  00000+0  20815-3 0  9990
2 40971  64.7772  10.9998 0130925  70.7027 290.8190 14.90400825108961
SNAP-3 EDDIE            
1 40972U 15058J   26137.54268751  .00044882  00000+0  64764-3 0  9993
2 40972  64.7440 200.2553 0033545  31.5397 328.7748 15.55055494114259
PROPCUBE 3              
1 40973U 15058K   26136.61744396  .00002794  00000+0  23953-3 0  9996
2 40973  64.7692 351.1555 0123036  72.4933 288.9582 14.94030179110087
BISONSAT                
1 40974U 15058L   26137.48740491  .00007618  00000+0  37985-3 0  9995
2 40974  64.7601 272.8422 0078674  60.3211 300.5715 15.15533064110963
SNAP-3 JIMI             
1 40975U 15058M   26137.49768385  .00004157  00000+0  29368-3 0  9990
2 40975  64.7650 316.8474 0105074  68.1036 293.1214 15.01965850109618
PROPCUBE 1 (FLORA)      
1 40976U 15058N   26137.43767690  .00002018  00000+0  19853-3 0  9995
2 40976  64.7762  30.5237 0129723  72.9616 288.5661 14.89032984111686
SINOD-D 3               
1 40977U 15058P   26137.38015722  .00002925  00000+0  25460-3 0  9990
2 40977  64.7737  12.0026 0118193  70.4401 290.9429 14.93763754110155
HORYU-4                 
1 41340U 16012D   26137.54583819  .00125194  00000+0  65633-3 0  9991
2 41340  30.9887 300.9018 0004741  65.0940 295.0210 15.79274004565947
RAVAN                   
1 41849U 16067B   26137.24675434  .00030646  00000+0  51525-3 0  9999
2 41849  97.9938  23.3185 0007194 109.0227 251.1804 15.51681954522899
CELTEE 1                
1 41850U 16067C   26137.12501770  .00003747  00000+0  18093-3 0  9994
2 41850  98.0712   1.5757 0001577  56.1369 304.0014 15.19352679521167
OPTICUBE 04             
1 41851U 16067D   26137.52196749  .00001513  00000+0  98642-4 0  9993
2 41851  98.0728 348.2039 0014749 217.3624 142.6579 15.09518363520545
AEROCUBE 8D             
1 41852U 16067E   26137.36511249  .00005333  00000+0  22399-3 0  9991
2 41852  98.0719   5.1972 0002212 221.4466 138.6602 15.23932248521375
AEROCUBE 8C             
1 41853U 16067F   26137.13241748  .00005721  00000+0  23828-3 0  9990
2 41853  98.0591   2.2151 0005877 153.6949 206.4586 15.24169649521332
CORVUS BC2              
1 42846U 17042X   26137.43551051  .00001808  00000+0  12769-3 0  9995
2 42846  97.4038 299.9917 0012218 210.3708 149.6813 15.06082946482432
CORVUS BC1              
1 42847U 17042Y   26137.43361411  .00001700  00000+0  11974-3 0  9993
2 42847  97.4069 300.7838 0011756 185.4973 174.6128 15.06253793482462
MAKERSAT 0              
1 43016U 17073D   26137.40502618  .00017905  00000+0  49983-3 0  9994
2 43016  97.4671  19.7092 0110901  23.6146 337.0130 15.30727134461755
